0 BREEZE-M DEB
1 38590U 08011AM  13275.34198759  .00000004  00000-0  00000+0 0  2726
2 38590 048.8065 239.2783 6383981 200.9210 354.3913 02.88079652 25253
0 BREEZE-M DEB
1 38590U 08011AM  13278.42941065 -.00000001  00000-0  00000+0 0  2733
2 38590 048.8238 238.3732 6389046 201.7400 316.4929 02.88074287 25342
0 BREEZE-M DEB
1 38590U 08011AM  13279.13906161  .00000002  00000-0  00000+0 0  2741
2 38590 048.8179 238.1595 6388120 201.9228 332.4877 02.88062670 25368
0 BREEZE-M DEB
1 38590U 08011AM  13280.18529753  .00000008  00000-0  00000+0 0  2753
2 38590 048.8012 237.8492 6382702 202.1709 337.5516 02.88052017 25396
0 BREEZE-M DEB
1 38590U 08011AM  13282.28429653  .00000020  00000-0  00000+0 0  2769
2 38590 048.7831 237.2213 6377601 202.6933 354.4067 02.88021523 25459
0 BREEZE-M DEB
1 38590U 08011AM  13286.74383472 -.00000012  00000-0  00000+0 0  2775
2 38590 048.7806 235.9015 6379554 203.8579 298.9002 02.88022327 25582
0 BREEZE-M DEB
1 38590U 08011AM  13289.20056043 -.00000051  00000-0  00000+0 0  2784
2 38590 048.7677 235.1671 6376180 204.4821 326.3289 02.87990967 25651
